DMSP 5D-3 F16 (USA 172) 
1 28054U 03048A   26077.97482057  .00000121  00000+0  86960-4 0  9994
2 28054  98.9982 101.1720 0007847  49.3693  10.0923 14.14465575156737
METEOSAT-9 (MSG-2)      
1 28912U 05049B   26077.49967955  .00000132  00000+0  00000+0 0  9990
2 28912   9.1562  55.0386 0000241 128.9056 217.7155  1.00269087  6087
DMSP 5D-3 F17 (USA 191) 
1 29522U 06050A   26077.94136175  .00000130  00000+0  89674-4 0  9990
2 29522  98.7413  86.3487 0009286 319.1126  40.9350 14.14968159999655
FENGYUN 3A              
1 32958U 08026A   26077.54581018  .00000080  00000+0  58537-4 0  9996
2 32958  98.6810  20.1128 0009400  35.2389 324.9407 14.19549107922540
GOES 14                 
1 35491U 09033A   26077.81397431  .00000103  00000+0  00000+0 0  9997
2 35491   1.4549  84.1875 0001656 271.2830 306.9896  1.00104690  5682
DMSP 5D-3 F18 (USA 210) 
1 35951U 09057A   26077.90583632  .00000259  00000+0  15738-3 0  9994
2 35951  98.8977  58.9052 0011633 142.7805 217.4176 14.14841850846825
EWS-G2 (GOES 15)        
1 36411U 10008A   26077.93091424  .00000025  00000+0  00000+0 0  9993
2 36411   1.0419  84.7645 0002499  18.6834 111.5302  1.00269663 58739
COMS 1                  
1 36744U 10032A   26077.94374096 -.00000339  00000+0  00000+0 0  9998
2 36744   4.5706  76.6383 0000760 294.4521 273.3061  1.00270399 50188
FENGYUN 3B              
1 37214U 10059A   26077.99579271 -.00000229  00000+0 -95009-4 0  9994
2 37214  98.9749 123.5818 0023179  82.9329 340.1675 14.14818265794677
SUOMI NPP               
1 37849U 11061A   26077.76528039  .00000070  00000+0  54349-4 0  9997
2 37849  98.7881  19.2966 0000906 182.6031 177.5140 14.19546125745619
METEOSAT-10 (MSG-3)     
1 38552U 12035B   26077.77590850 -.00000002  00000+0  00000+0 0  9998
2 38552   4.4564  61.3904 0002326 283.5451 110.8301  1.00269536 49955
METOP-B                 
1 38771U 12049A   26077.94775893  .00000096  00000+0  63591-4 0  9998
2 38771  98.6622 131.2023 0001509 220.1055 140.0011 14.21447665700445
INSAT-3D                
1 39216U 13038B   26077.94400096 -.00000335  00000+0  00000+0 0  9990
2 39216   1.6912  83.7067 0001590 241.1068 321.0805  1.00273736 46176
FENGYUN 3C              
1 39260U 13052A   26077.93423185  .00000073  00000+0  58241-4 0  9991
2 39260  98.4906  55.9924 0013535 284.6689  75.2985 14.15732076645795
METEOR-M 2              
1 40069U 14037A   26077.90466329  .00000035  00000+0  35162-4 0  9993
2 40069  98.5035  56.8789 0004860 307.5980  52.4756 14.21432812606496
HIMAWARI-8              
1 40267U 14060A   26077.87492734 -.00000274  00000+0  00000+0 0  9998
2 40267   0.0161 202.7122 0000287 131.7228 297.6327  1.00270595 41859
FENGYUN 2G              
1 40367U 14090A   26077.99836138 -.00000296  00000+0  00000+0 0  9999
2 40367   5.4090  73.9017 0001610 139.1440  62.5838  1.00268396 41098
METEOSAT-11 (MSG-4)     
1 40732U 15034A   26077.92016752  .00000065  00000+0  00000+0 0  9992
2 40732   2.9748  71.5942 0001830 278.8996 166.4430  1.00270693  6319
ELEKTRO-L 2             
1 41105U 15074A   26077.77296182 -.00000110  00000+0  00000+0 0  9993
2 41105   6.4654  71.6285 0002724 248.1422 120.3246  1.00272912 37603
INSAT-3DR               
1 41752U 16054A   26077.93299425 -.00000075  00000+0  00000+0 0  9991
2 41752   0.0842  90.1171 0012837 192.0109 304.2206  1.00271345 34914
HIMAWARI-9              
1 41836U 16064A   26077.98173618 -.00000273  00000+0  00000+0 0  9995
2 41836   0.0158 160.1003 0000930 221.1725 289.4703  1.00272185 34300
GOES 16                 
1 41866U 16071A   26077.89746076 -.00000089  00000+0  00000+0 0  9995
2 41866   0.1327  86.3736 0002194 229.1883  79.2808  1.00271706 34197
FENGYUN 4A              
1 41882U 16077A   26076.80202565 -.00000354  00000+0  00000+0 0  9994
2 41882   2.0885  81.2364 0007184 133.1068  13.5255  1.00272459 34013
CYGFM05                 
1 41884U 16078A   26077.51043480  .00017663  00000+0  27825-3 0  9993
2 41884  34.9575 139.2470 0006118   6.3118 353.7681 15.52607120514632
CYGFM04                 
1 41885U 16078B   26077.79643019  .00024554  00000+0  33940-3 0  9990
2 41885  34.9326 109.1024 0004541  52.6410 307.4727 15.56134413514883
CYGFM02                 
1 41886U 16078C   26077.49175173  .00024477  00000+0  30964-3 0  9996
2 41886  34.9411 107.8202 0005590  52.1174 308.0056 15.58491658514981
CYGFM01                 
1 41887U 16078D   26077.85639197  .00022626  00000+0  34979-3 0  9992
2 41887  34.9404 138.7012 0005863   0.6670 359.4061 15.53091366514633
CYGFM08                 
1 41888U 16078E   26077.82521057  .00020497  00000+0  29582-3 0  9993
2 41888  34.9433 120.5890 0006842  32.9123 327.2026 15.54978063514877
CYGFM07                 
1 41890U 16078G   26077.78990254  .00022678  00000+0  32306-3 0  9991
2 41890  34.9451 109.2396 0005040  55.5006 304.6193 15.55330748514894
CYGFM03                 
1 41891U 16078H   26077.50417746  .00020906  00000+0  29806-3 0  9995
2 41891  34.9405 113.1004 0004470  33.9442 326.1567 15.55322952514829
FENGYUN 3D              
1 43010U 17072A   26077.93897439 -.00000225  00000+0 -84377-4 0  9992
2 43010  99.0040  50.7713 0001130 351.1405   8.9750 14.19717218432187
NOAA 20 (JPSS-1)        
1 43013U 17073A   26077.92097561  .00000063  00000+0  50829-4 0  9996
2 43013  98.7703  18.2169 0001578 125.5374 234.5949 14.19538447431664
GOES 17                 
1 43226U 18022A   26077.90066745 -.00000180  00000+0  00000+0 0  9997
2 43226   0.7040  87.1961 0001620 231.5987  92.3986  1.00271873 29519
FENGYUN 2H              
1 43491U 18050A   26078.00425473 -.00000123  00000+0  00000+0 0  9998
2 43491   2.7961  80.1686 0001393 168.1489   8.8691  1.00271714 28533
METOP-C                 
1 43689U 18087A   26077.90140886  .00000089  00000+0  60434-4 0  9999
2 43689  98.6745 139.1172 0002154  87.1791 272.9633 14.21499868382007
GEO-KOMPSAT-2A          
1 43823U 18100A   26077.37343666 -.00000343  00000+0  00000+0 0  9999
2 43823   0.0434  39.8811 0001614  16.7157  22.0119  1.00269305 26719
METEOR-M2 2             
1 44387U 19038A   26077.97750565 -.00000129  00000+0 -35830-4 0  9999
2 44387  98.9093  63.9573 0000381 332.7444  27.3714 14.24337319348453
ARKTIKA-M 1             
1 47719U 21016A   26077.77327249 -.00000047  00000+0  00000+0 0  9991
2 47719  63.2196  70.5789 7249851 269.5343  15.1625  2.00618076 36976
FENGYUN 3E              
1 49008U 21062A   26077.93328375 -.00000179  00000+0 -63697-4 0  9997
2 49008  98.7510  82.3433 0001864  24.4196 335.7068 14.19894283243775
GOES 18                 
1 51850U 22021A   26077.67736807  .00000098  00000+0  00000+0 0  9997
2 51850   0.0457  11.1889 0000599  45.3119 226.5771  1.00272658  5681
NOAA 21 (JPSS-2)        
1 54234U 22150A   26077.88509539  .00000054  00000+0  46643-4 0  9992
2 54234  98.7565  18.0461 0002772  90.3107 269.8387 14.19554577173730
METEOSAT-12 (MTG-I1)    
1 54743U 22170C   26077.96156027 -.00000005  00000+0  00000+0 0  9997
2 54743   0.7171  23.6819 0001840 287.1142 211.5217  1.00271545 12072
TIANMU-1 03             
1 55973U 23039A   26077.95042686  .00014283  00000+0  30959-3 0  9994
2 55973  97.5181 248.5854 0003848  75.6317 284.5358 15.44525911166892
TIANMU-1 04             
1 55974U 23039B   26077.90661517  .00014003  00000+0  29928-3 0  9994
2 55974  97.5113 247.6977 0004459  70.3357 289.8372 15.44943842166890
TIANMU-1 05             
1 55975U 23039C   26077.92737383  .00013681  00000+0  29726-3 0  9999
2 55975  97.5160 248.2093 0003869  93.7553 266.4138 15.44466249166870
TIANMU-1 06             
1 55976U 23039D   26077.90625554  .00014096  00000+0  30099-3 0  9990
2 55976  97.5169 248.7364 0004145  88.3936 271.7787 15.44970990166893
FENGYUN 3G              
1 56232U 23055A   26077.90315351  .00024481  00000+0  39941-3 0  9999
2 56232  49.9919  91.5362 0005684 333.1872  26.8801 15.52386410165975
METEOR-M2 3             
1 57166U 23091A   26077.95174078  .00000009  00000+0  22684-4 0  9997
2 57166  98.6194 134.7334 0005050  78.3040 281.8705 14.24038572141677
TIANMU-1 07             
1 57399U 23101A   26075.65195713  .00005925  00000+0  21140-3 0  9998
2 57399  97.2716 128.4459 0005009 119.2908 240.8834 15.29238470147501
TIANMU-1 08             
1 57400U 23101B   26078.04183383  .00000252  00000+0  11448-4 0  9996
2 57400  97.2689 130.5655 0005953  93.5789 266.6132 15.29195905147865
TIANMU-1 09             
1 57401U 23101C   26077.95930488  .00005932  00000+0  21176-3 0  9990
2 57401  97.2653 129.9481 0005390 116.5126 243.6668 15.29216365147854
TIANMU-1 10             
1 57402U 23101D   26077.66550569  .00005873  00000+0  20876-3 0  9997
2 57402  97.2732 130.6151 0007268 109.5432 250.6594 15.29352723147804
FENGYUN 3F              
1 57490U 23111A   26077.91905534  .00000054  00000+0  46126-4 0  9992
2 57490  98.6905 149.5850 0001080  77.4661 282.6636 14.19921530136059
ARKTIKA-M 2             
1 58584U 23198A   26064.07652728  .00000150  00000+0  00000+0 0  9992
2 58584  63.2186 165.9003 6877723 267.7621  18.8474  2.00612038 16239
TIANMU-1 11             
1 58645U 23205A   26077.92104120  .00005210  00000+0  20527-3 0  9997
2 58645  97.3531 100.9219 0007933 334.2485  25.8357 15.26002256123758
TIANMU-1 12             
1 58646U 23205B   26077.95390046  .00005316  00000+0  20990-3 0  9996
2 58646  97.3520 100.7307 0005777 317.1383  42.9405 15.25931961123740
TIANMU-1 13             
1 58647U 23205C   26077.98448928  .00005278  00000+0  20811-3 0  9992
2 58647  97.3546 101.0038 0005749 292.4339  67.6290 15.25983345123748
TIANMU-1 14             
1 58648U 23205D   26077.96920759  .00005206  00000+0  20544-3 0  9992
2 58648  97.3482 100.2492 0006559 297.7976  62.2597 15.25958239123743
TIANMU-1 19             
1 58660U 23208A   26077.95188686  .00007784  00000+0  27045-3 0  9999
2 58660  97.4398 193.9502 0003740 273.5188  86.5624 15.30023063123521
TIANMU-1 20             
1 58661U 23208B   26077.92902436  .00008002  00000+0  26790-3 0  9994
2 58661  97.4337 194.4703 0005876 285.6974  74.3619 15.31210450123600
TIANMU-1 21             
1 58662U 23208C   26077.91533388  .00008844  00000+0  27759-3 0  9990
2 58662  97.4392 196.7663 0005776 278.6478  81.4110 15.33252115123726
TIANMU-1 22             
1 58663U 23208D   26077.90646594  .00007043  00000+0  24799-3 0  9995
2 58663  97.4392 193.9097 0002511 310.7410  49.3612 15.29625409123528
TIANMU-1 15             
1 58700U 24004A   26077.96691314  .00005454  00000+0  21515-3 0  9995
2 58700  97.4667 264.1941 0005970 313.8291  46.2453 15.25966060122016
TIANMU-1 16             
1 58701U 24004B   26077.95018932  .00005582  00000+0  21991-3 0  9994
2 58701  97.4611 263.4939 0004480 320.3325  39.7585 15.26001945122017
TIANMU-1 17             
1 58702U 24004C   26077.93230742  .00005780  00000+0  22736-3 0  9996
2 58702  97.4642 263.9340 0003692 324.1176  35.9814 15.26037168122001
TIANMU-1 18             
1 58703U 24004D   26077.91780565  .00005501  00000+0  21692-3 0  9999
2 58703  97.4659 264.1325 0003101 325.6218  34.4819 15.25980783122002
INSAT-3DS               
1 58990U 24033A   26077.82198649 -.00000154  00000+0  00000+0 0  9991
2 58990   0.0146 219.4744 0002115 145.8603 189.0117  1.00270722 46166
METEOR-M2 4             
1 59051U 24039A   26077.93435296  .00000017  00000+0  27258-4 0  9996
2 59051  98.6919  38.4129 0008178  73.3360 286.8715 14.22418703106430
GOES 19                 
1 60133U 24119A   26077.90344079 -.00000246  00000+0  00000+0 0  9999
2 60133   0.0039  66.3246 0000857 333.7188  26.4625  1.00271386  6051
FENGYUN 3H              
1 65815U 25219A   26077.91521846  .00000056  00000+0  46696-4 0  9997
2 65815  98.6697  20.4747 0001081  58.9814 301.1469 14.19934984 24575
